time,metar,visibility,wind,risk
2026-03-11 23:12:26.082307,METAR VTUL 112300Z 00000KT 9000 OVC030 19/19 Q1014 NOSIG,9000,0,LOW
